[{"OBJECT_NAME":"STARLINK-5043","OBJECT_ID":"2022-119J","EPOCH":"2026-03-09T22:50:17.699136","MEAN_MOTION":15.08840442,"ECCENTRICITY":0.00014045,"INCLINATION":53.2197,"RA_OF_ASC_NODE":322.987,"ARG_OF_PERICENTER":100.7149,"MEAN_ANOMALY":259.4002,"EPHEMERIS_TYPE":0,"CLASSIFICATION_TYPE":"U","NORAD_CAT_ID":53894,"ELEMENT_SET_NO":999,"REV_AT_EPOCH":19172,"BSTAR":3.3499785e-5,"MEAN_MOTION_DOT":2.45e-6,"MEAN_MOTION_DDOT":0},{"OBJECT_NAME":"CZ-4 DEB","OBJECT_ID":"2006-046H","EPOCH":"2026-03-09T02:48:41.934528","MEAN_MOTION":15.12857559,"ECCENTRICITY":0.00451328,"INCLINATION":97.5575,"RA_OF_ASC_NODE":118.4736,"ARG_OF_PERICENTER":295.6188,"MEAN_ANOMALY":89.8626,"EPHEMERIS_TYPE":0,"CLASSIFICATION_TYPE":"U","NORAD_CAT_ID":35375,"ELEMENT_SET_NO":999,"REV_AT_EPOCH":5626,"BSTAR":0.00023308037,"MEAN_MOTION_DOT":4.131e-5,"MEAN_MOTION_DDOT":0}]
